{"type": "FeatureCollection", "features": [ {"type": "Feature", "properties": {"norad_id": 42969, "name": "SENTINEL-5P", "group": "resource", "lat": 58.63341837759554, "lon": 120.82589593104775, "alt_km": 820.7125091048129, "timestamp": "2025-12-13T13:34:34.732240+00:00", "meta": {"OBJECT_NAME": "SENTINEL-5P", "OBJECT_ID": "2017-064A", "EPOCH": "2025-12-12T18:24:14.018688", "MEAN_MOTION": 14.19517585, "ECCENTRICITY": 9.504e-05, "INCLINATION": 98.7785, "RA_OF_ASC_NODE": 285.3507, "ARG_OF_PERICENTER": 88.8819, "MEAN_ANOMALY": 271.2466, "EPHEMERIS_TYPE": 0, "CLASSIFICATION_TYPE": "U", "NORAD_CAT_ID": 42969, "ELEMENT_SET_NO": 999, "REV_AT_EPOCH": 42311, "BSTAR": 9.3228453e-05, "MEAN_MOTION_DOT": 1.52e-06, "MEAN_MOTION_DDOT": 0}, "tle": {"line1": "1 42969U 17064A   25346.76682892  .00000152  00000+0  93228-4 0  9991", "line2": "2 42969  98.7785 285.3507 0000950  88.8819 271.2466 14.19517585423117"}}, "geometry": {"type": "Point", "coordinates": [120.82589593104775, 58.63341837759554]}}, {"type": "Feature", "properties": {"norad_id": 42987, "name": "SKYSAT-C11", "group": "resource", "lat": -72.07453789747527, "lon": -78.66064694768711, "alt_km": 431.9855161121113, "timestamp": "2025-12-13T13:34:34.732249+00:00", "meta": {"OBJECT_NAME": "SKYSAT-C11", "OBJECT_ID": "2017-068A", "EPOCH": "2025-12-12T22:30:58.781376", "MEAN_MOTION": 15.47456375, "ECCENTRICITY": 9.919e-05, "INCLINATION": 97.4139, "RA_OF_ASC_NODE": 124.434, "ARG_OF_PERICENTER": 103.3817, "MEAN_ANOMALY": 256.7543, "EPHEMERIS_TYPE": 0, "CLASSIFICATION_TYPE": "U", "NORAD_CAT_ID": 42987, "ELEMENT_SET_NO": 999, "REV_AT_EPOCH": 45434, "BSTAR": 0.00057650481, "MEAN_MOTION_DOT": 0.00029543, "MEAN_MOTION_DDOT": 0}, "tle": {"line1": "1 42987U 17068A   25346.93818034  .00029543  00000+0  57650-3 0  9996", "line2": "2 42987  97.4139 124.4340 0000991 103.3817 256.7543 15.47456375454344"}}, "geometry": {"type": "Point", "coordinates": [-78.66064694768711, -72.07453789747527]}}, {"type": "Feature", "properties": {"norad_id": 42988, "name": "SKYSAT-C10", "group": "resource", "lat": -70.24749560752556, "lon": 139.71514998423058, "alt_km": 480.5164494976243, "timestamp": "2025-12-13T13:34:34.732258+00:00", "meta": {"OBJECT_NAME": "SKYSAT-C10", "OBJECT_ID": "2017-068B", "EPOCH": "2025-12-12T22:12:49.471776", "MEAN_MOTION": 15.32068085, "ECCENTRICITY": 0.00053429, "INCLINATION": 97.4254, "RA_OF_ASC_NODE": 117.7766, "ARG_OF_PERICENTER": 102.9889, "MEAN_ANOMALY": 257.195, "EPHEMERIS_TYPE": 0, "CLASSIFICATION_TYPE": "U", "NORAD_CAT_ID": 42988, "ELEMENT_SET_NO": 999, "REV_AT_EPOCH": 45382, "BSTAR": 0.00051154393, "MEAN_MOTION_DOT": 0.00015781, "MEAN_MOTION_DDOT": 0}, "tle": {"line1": "1 42988U 17068B   25346.92557259  .00015781  00000+0  51154-3 0  9997", "line2": "2 42988  97.4254 117.7766 0005342 102.9889 257.1950 15.32068085453829"}}, "geometry": {"type": "Point", "coordinates": [139.71514998423058, -70.24749560752556]}}, {"type": "Feature", "properties": {"norad_id": 42989, "name": "SKYSAT-C9", "group": "resource", "lat": 31.703271325671658, "lon": -57.55809692986101, "alt_km": 452.75074539293564, "timestamp": "2025-12-13T13:34:34.732267+00:00", "meta": {"OBJECT_NAME": "SKYSAT-C9", "OBJECT_ID": "2017-068C", "EPOCH": "2025-12-12T21:18:03.960576", "MEAN_MOTION": 15.36054461, "ECCENTRICITY": 0.0010627, "INCLINATION": 97.4185, "RA_OF_ASC_NODE": 117.1422, "ARG_OF_PERICENTER": 86.9347, "MEAN_ANOMALY": 273.3113, "EPHEMERIS_TYPE": 0, "CLASSIFICATION_TYPE": "U", "NORAD_CAT_ID": 42989, "ELEMENT_SET_NO": 999, "REV_AT_EPOCH": 45410, "BSTAR": 0.00050474148, "MEAN_MOTION_DOT": 0.00017693, "MEAN_MOTION_DDOT": 0}, "tle": {"line1": "1 42989U 17068C   25346.88754584  .00017693  00000+0  50474-3 0  9991", "line2": "2 42989  97.4185 117.1422 0010627  86.9347 273.3113 15.36054461454108"}}, "geometry": {"type": "Point", "coordinates": [-57.55809692986101, 31.703271325671658]}}, {"type": "Feature", "properties": {"norad_id": 42990, "name": "SKYSAT-C8", "group": "resource", "lat": 69.29717637946807, "lon": -42.23748824365098, "alt_km": 460.95902809083145, "timestamp": "2025-12-13T13:34:34.732276+00:00", "meta": {"OBJECT_NAME": "SKYSAT-C8", "OBJECT_ID": "2017-068D", "EPOCH": "2025-12-12T23:00:04.964256", "MEAN_MOTION": 15.32927639, "ECCENTRICITY": 0.00016162, "INCLINATION": 97.4275, "RA_OF_ASC_NODE": 116.9591, "ARG_OF_PERICENTER": 346.6328, "MEAN_ANOMALY": 13.4871, "EPHEMERIS_TYPE": 0, "CLASSIFICATION_TYPE": "U", "NORAD_CAT_ID": 42990, "ELEMENT_SET_NO": 999, "REV_AT_EPOCH": 45374, "BSTAR": 0.00051001076, "MEAN_MOTION_DOT": 0.00016158, "MEAN_MOTION_DDOT": 0}, "tle": {"line1": "1 42990U 17068D   25346.95839079  .00016158  00000+0  51001-3 0  9996", "line2": "2 42990  97.4275 116.9591 0001616 346.6328  13.4871 15.32927639453742"}}, "geometry": {"type": "Point", "coordinates": [-42.23748824365098, 69.29717637946807]}}, {"type": "Feature", "properties": {"norad_id": 42991, "name": "SKYSAT-C7", "group": "resource", "lat": -36.84339942805116, "lon": 124.21983808769335, "alt_km": 475.33572958080185, "timestamp": "2025-12-13T13:34:34.732285+00:00", "meta": {"OBJECT_NAME": "SKYSAT-C7", "OBJECT_ID": "2017-068E", "EPOCH": "2025-12-12T22:03:57.220992", "MEAN_MOTION": 15.32331015, "ECCENTRICITY": 0.00076316, "INCLINATION": 97.4284, "RA_OF_ASC_NODE": 117.9612, "ARG_OF_PERICENTER": 56.3427, "MEAN_ANOMALY": 303.8542, "EPHEMERIS_TYPE": 0, "CLASSIFICATION_TYPE": "U", "NORAD_CAT_ID": 42991, "ELEMENT_SET_NO": 999, "REV_AT_EPOCH": 45380, "BSTAR": 0.00051799565, "MEAN_MOTION_DOT": 0.00016121, "MEAN_MOTION_DDOT": 0}, "tle": {"line1": "1 42991U 17068E   25346.91941228  .00016121  00000+0  51800-3 0  9990", "line2": "2 42991  97.4284 117.9612 0007631  56.3427 303.8542 15.32331015453801"}}, "geometry": {"type": "Point", "coordinates": [124.21983808769335, -36.84339942805116]}}, {"type": "Feature", "properties": {"norad_id": 42992, "name": "SKYSAT-C6", "group": "resource", "lat": 75.39292763219505, "lon": 88.99055632239067, "alt_km": 460.6142183539059, "timestamp": "2025-12-13T13:34:34.732294+00:00", "meta": {"OBJECT_NAME": "SKYSAT-C6", "OBJECT_ID": "2017-068F", "EPOCH": "2025-12-12T21:33:32.005440", "MEAN_MOTION": 15.31492716, "ECCENTRICITY": 0.00051766, "INCLINATION": 97.4316, "RA_OF_ASC_NODE": 118.3784, "ARG_OF_PERICENTER": 81.9204, "MEAN_ANOMALY": 278.2625, "EPHEMERIS_TYPE": 0, "CLASSIFICATION_TYPE": "U", "NORAD_CAT_ID": 42992, "ELEMENT_SET_NO": 999, "REV_AT_EPOCH": 45378, "BSTAR": 0.00048536429, "MEAN_MOTION_DOT": 0.00014701, "MEAN_MOTION_DDOT": 0}, "tle": {"line1": "1 42992U 17068F   25346.89828710  .00014701  00000+0  48536-3 0  9992", "line2": "2 42992  97.4316 118.3784 0005176  81.9204 278.2625 15.31492716453781"}}, "geometry": {"type": "Point", "coordinates": [88.99055632239067, 75.39292763219505]}}, {"type": "Feature", "properties": {"norad_id": 43111, "name": "CARTOSAT-2F", "group": "resource", "lat": 32.025735039067385, "lon": -130.12731980525507, "alt_km": 505.47260595643, "timestamp": "2025-12-13T13:34:34.732303+00:00", "meta": {"OBJECT_NAME": "CARTOSAT-2F", "OBJECT_ID": "2018-004A", "EPOCH": "2025-12-13T00:17:00.046176", "MEAN_MOTION": 15.19280127, "ECCENTRICITY": 0.0001105, "INCLINATION": 97.432, "RA_OF_ASC_NODE": 44.6443, "ARG_OF_PERICENTER": 136.3644, "MEAN_ANOMALY": 223.7678, "EPHEMERIS_TYPE": 0, "CLASSIFICATION_TYPE": "U", "NORAD_CAT_ID": 43111, "ELEMENT_SET_NO": 999, "REV_AT_EPOCH": 43906, "BSTAR": 0.0003399813, "MEAN_MOTION_DOT": 7.106e-05, "MEAN_MOTION_DDOT": 0}, "tle": {"line1": "1 43111U 18004A   25347.01180609  .00007106  00000+0  33998-3 0  9997", "line2": "2 43111  97.4320  44.6443 0001105 136.3644 223.7678 15.19280127439069"}}, "geometry": {"type": "Point", "coordinates": [-130.12731980525507, 32.025735039067385]}}, {"type": "Feature", "properties": {"norad_id": 43259, "name": "GAOFEN-1 02", "group": "resource", "lat": 32.78776587011954, "lon": -129.3943962650032, "alt_km": 638.2239561037004, "timestamp": "2025-12-13T13:34:34.732312+00:00", "meta": {"OBJECT_NAME": "GAOFEN-1 02", "OBJECT_ID": "2018-031A", "EPOCH": "2025-12-12T23:54:05.021280", "MEAN_MOTION": 14.76417172, "ECCENTRICITY": 0.00017886, "INCLINATION": 98.0804, "RA_OF_ASC_NODE": 44.785, "ARG_OF_PERICENTER": 216.7396, "MEAN_ANOMALY": 143.3692, "EPHEMERIS_TYPE": 0, "CLASSIFICATION_TYPE": "U", "NORAD_CAT_ID": 43259, "ELEMENT_SET_NO": 999, "REV_AT_EPOCH": 41522, "BSTAR": 0.00027196206, "MEAN_MOTION_DOT": 1.839e-05, "MEAN_MOTION_DDOT": 0}, "tle": {"line1": "1 43259U 18031A   25346.99589145  .00001839  00000+0  27196-3 0  9994", "line2": "2 43259  98.0804  44.7850 0001788 216.7396 143.3692 14.76417172415222"}}, "geometry": {"type": "Point", "coordinates": [-129.3943962650032, 32.78776587011954]}}, {"type": "Feature", "properties": {"norad_id": 43260, "name": "GAOFEN-1 03", "group": "resource", "lat": -78.65301744023083, "lon": -179.83311801372835, "alt_km": 647.1759015455618, "timestamp": "2025-12-13T13:34:34.732321+00:00", "meta": {"OBJECT_NAME": "GAOFEN-1 03", "OBJECT_ID": "2018-031B", "EPOCH": "2025-12-13T01:00:26.603712", "MEAN_MOTION": 14.76438046, "ECCENTRICITY": 0.00019633, "INCLINATION": 98.0799, "RA_OF_ASC_NODE": 44.7083, "ARG_OF_PERICENTER": 320.8421, "MEAN_ANOMALY": 39.2646, "EPHEMERIS_TYPE": 0, "CLASSIFICATION_TYPE": "U", "NORAD_CAT_ID": 43260, "ELEMENT_SET_NO": 999, "REV_AT_EPOCH": 41522, "BSTAR": 0.00022704694, "MEAN_MOTION_DOT": 1.527e-05, "MEAN_MOTION_DDOT": 0}, "tle": {"line1": "1 43260U 18031B   25347.04197458  .00001527  00000+0  22705-3 0  9990", "line2": "2 43260  98.0799  44.7083 0001963 320.8421  39.2646 14.76438046415221"}}, "geometry": {"type": "Point", "coordinates": [-179.83311801372835, -78.65301744023083]}}]}